#dP2021  8 18 12  0  0.00000000      96 __u+U ITR00 EXT  IAC
## 2171 302400.00000000   900.00000000 59444 0.5000000000000
+  114   C06C08C09C10C11C12C13C14C16C19C20C21C22C23C24C25C26
+        C27C28C29C30C32C33C34C35C36C37C38C39C41C42C43C44C45
+        C46E01E02E03E04E05E07E08E09E11E12E13E14E15E18E19E21
+        E24E25E26E27E30E31E33E36G01G02G03G04G05G06G07G08G09
+        G10G12G13G14G15G16G17G18G19G20G21G22G23G24G25G26G27
+        G28G29G30G31G32J01J02J03R01R02R03R04R05R07R08R09R11
+        R12R13R14R15R16R17R18R19R20R21R22R24  0  0  0  0  0
++        10 10  9 10  9  9  8 10  9  9  8 10  9  9 10  9  9
++         9  9  7  8  8 11  9  9 10  9 12 10  8  9  8 10  9
++         7  8  7  9  8 10  8  9  9  8  9  9  7  7 10  8  8
++         8  7  8  9  7  8  8  7  7  7  8  9  8  7  8  8  7
++         6  7  9  7  9  8  7  7  7  7  8  8  8  8  7  7  7
++         7  8  9  7  7  9  7  9  9  7  7  8  8  9  9  9  8
++         9  8  9  9  7  9  7  8  9 10  9 10  0  0  0  0  0
%c M  cc GPS ccc cccc cccc cccc cccc ccccc ccccc ccccc ccccc
%c cc cc ccc ccc cccc cccc cccc cccc ccccc ccccc ccccc ccccc
%f  0.0000000  0.000000000  0.00000000000  0.000000000000000
%f  0.0000000  0.000000000  0.00000000000  0.000000000000000
%i    0    0    0    0      0      0      0      0         0
%i    0    0    0    0      0      0      0      0         0
/* IAC                                ULTRA-RAPID PREDICTION
/* S/V CLOCKS ARE ALIGNED TO GNSS TIME                      
/* G:C1WC2W R:C1PC2P E:C1XC5X C:C2IC6I J:C1CC2S             
/* PCV:IGS14_2163 OL/AL:FES2004  NONE     YN ORB:CoN CLK:CoN
*  2021 08 18 20 30  0.00000000
PC06  -5403.281084  39629.169596 -13047.214309    775.817575
PC08 -25592.319098  30380.983489 -14575.518371   -923.916062
PC09    457.979506  41807.413132  -2830.317187    -37.262504
PC10    622.536141  27688.298743  32115.271759     -7.459578
PC11  -2321.471565  27479.190165   4499.749813    524.447200
PC12 -12065.357842  16326.381759  19190.337155    779.025994
PC13 -11963.111707  30919.754583 -26127.035811    378.216142
PC14    581.752970  17321.847779 -21864.743386    710.497291
PC16  -6534.647198  38499.951711 -15509.863298   -853.948531
PC19 -11017.922832 -18970.596833  17256.465546    951.871574
PC20   8087.814452 -13651.506589  22966.817934   -817.234186
PC21 -23370.550865   -167.649555 -15219.600288   -938.935809
PC22 -24374.112231 -13493.579079   1293.637458   -950.448076
PC23  17979.601488   6004.034178  20494.801392   -961.412065
PC24 -17991.456775  19250.367017   9227.719037   -964.177782
PC25   1176.039121  17738.125192  21515.285970   -868.314968
PC26 -24863.647203  10575.323196  -7053.250671    862.568899
PC27  15316.780319  -6342.530674 -22471.148250    583.048376
PC28  13773.838083  14811.389180 -19231.685848    -36.958281
PC29  -5181.973481 -27012.615467   4692.208866    435.138670
PC30   7332.792758 -23607.882576 -12971.361770    477.871797
PC32  23418.391336     15.331977  15196.161542   -932.820048
PC33  11073.015877  18929.087609 -17267.196514   -959.746704
PC34  -6919.295005  24070.574771  12278.215980   -602.063872
PC35 -14214.197543 -14735.293261  18965.369947   -133.512180
PC36   -348.422574 -17901.016386 -21371.719105   -745.338768
PC37  25094.351217  -9256.120400   7954.679805   -861.677801
PC38 -22614.417543  31862.786518 -16044.472330    169.501506
PC39  -8579.278297  35296.974019 -21265.215187     32.827643
PC41  24325.452878  13577.234647  -1573.303475   -956.840341
PC42  -8898.428839  13245.183037 -22854.148088   -935.379735
PC43   4743.651329  27175.235173  -4165.990188   -873.884121
PC44 -15250.428163   6601.663900  22402.816936    347.678809
PC45 -18068.656565  -5716.591951 -20476.719463    524.121382
PC46  17122.393746 -19482.149066 -10238.102733    126.076675
PE01  27629.111286   4347.100519   9700.528877  -1174.453720
PE02 -27698.127959  -4238.836479  -9550.283666    240.809048
PE03 -21958.546319 -13122.668462 -14881.451425   -465.120061
PE04  16139.029317  -6451.908744  23965.432512   -837.814695
PE05 -14979.526691 -25337.939769   3108.022612   -256.231584
PE07   -629.902192  22643.563997 -19055.270532   -575.356064
PE08 -15762.544050   6820.708367 -24106.141349   5951.989483
PE09    294.710821 -22660.670330  19035.552755   5561.679157
PE11  10383.647979 -27537.603185   3188.326342   5558.714308
PE12  18870.034445 -16678.448728 -15568.555058   5053.816052
PE13 -10588.159031  27506.202638  -2757.277828    420.434721
PE14   8482.078328 -21277.867433 -19017.826096  -1540.090152
PE15 -18764.430377  16773.652238  15581.516767    797.230580
PE18   5139.138512  26860.819248   5577.104387  -1689.227690
PE19  21737.432622  15239.698468  13097.404467    355.512392
PE21  13135.424476  14136.920134  22453.299910   -682.773391
PE24  10711.950694 -16106.004915 -22403.722016  -1069.938640
PE25 -12908.681133 -14201.867628 -22521.585497   -543.685977
PE26   4510.266122  21459.521902 -19891.625255   1446.312402
PE27  -9604.808721  16270.356072  22798.384983   -100.820167
PE30 -27112.019248   8080.956277   8722.910288   2691.284736
PE31  26533.703178  -8806.651838  -9713.230994   -484.566333
PE33  15867.376660   3813.499152 -24697.188529   -466.108774
PE36  -3787.871172 -22020.589605  19409.803480   -250.214434
PG01 -13639.263912  22411.773834  -2985.169039    593.700996
PG02  18379.036447  -8123.845022 -16753.279656   -627.129049
PG03 -12498.776277  12542.387686 -19864.850672   -258.812453
PG04  -3782.854462  20478.527810 -16442.956596   -203.997128
PG05  22979.731010  -6881.191645  11417.001120    -51.547458
PG06  14001.866265   5357.430502 -21871.577657     58.322017
PG07  -1642.505935  21468.784816  15586.809253    227.714780
PG08 -11136.566391  10916.904183  21446.721434    -33.153116
PG09   6266.741986  24752.574746  -7335.425933   -359.134945
PG10 -18974.864526 -11753.431028  14724.452856   -185.178373
PG12  13504.007444 -11579.518185 -19929.872027    -84.784952
PG13  14924.521676  -2302.841154  21718.098561    173.162417
PG14  18709.728780  12531.432595  14120.383375     20.830543
PG15  10233.701727 -12636.820224  20572.225596   -127.438761
PG16 -25837.445020     90.235973   6868.013968   -375.900561
PG17  12896.294407  22392.152951  -5691.529590    491.384381
PG18    517.055711 -20395.955146  16944.611445    331.527800
PG19  15772.386500  16044.519428 -14512.514318     41.357885
PG20  26378.024978  -1389.364151   -264.885074    519.584511
PG21 -16939.712396  19139.013045   6799.646696    137.955033
PG22 -19099.382469  10961.908974 -14529.318072   -535.007412
PG23  -7439.954533 -14836.109961  20727.044247     69.066639
PG24  14897.282951 -21572.217915   2302.763764    212.073453
PG25   1308.853582 -15301.491413 -21931.199082    193.403289
PG26 -25788.854080  -4792.687800  -5087.925447    124.163908
PG27 -15970.124716   -432.875277  21103.943509   -180.235789
PG28  22422.917661  10774.607420   9569.865224    517.459177
PG29  -2735.437730 -24707.007637  -9312.058679   -398.258089
PG30   8753.360959  13986.644157  20844.293579   -463.626681
PG31 -15925.523508  -3579.423113 -21120.551838   -134.993533
PG32 -15918.225398 -19537.704381  -8548.658315      6.731132
PJ01 -22450.871915  18440.739275 -25978.020825   -443.097068
PJ02 -31356.606954  24440.840010  18911.644123     -1.663069
PJ03 -27356.660705  26521.753947  23166.087571     -0.943914
PR01 -18134.625116 -16958.022764   5820.737163     84.044300
PR02 -19966.982683  -7238.138579 -14135.502419    490.164556
PR03  -9336.146039   6458.120927 -22806.394729     41.443570
PR04   6523.174601  16149.079925 -18608.356641    100.698920
PR05  18582.624232  16984.907744  -4023.805272     77.378385
PR07   8700.406714  -7033.451101  22955.822967    -41.613257
PR08  -6517.674478 -16261.467653  18602.837344    -60.457786
PR09  23386.240783  -5179.957849   8900.114184      8.735004
PR11   6068.225929 -13322.516290 -20876.955037     46.698091
PR12 -12636.641834  -5805.977969 -21353.864334    254.741489
PR13 -23099.086316   4786.447914  -9706.821661    -59.347376
PR14 -20205.695417  12929.343279   8664.241836     67.792414
PR15  -5549.700959  13215.568350  21125.675486    101.997203
PR16  13721.130039   5045.372034  20854.569373    -19.821197
PR17  -9408.377458  18572.201890  14774.849874    450.933007
PR18  -3150.096975  25257.066764  -1287.782910     87.414567
PR19   3872.411524  19428.585867 -16082.175317   -155.914013
PR20  10505.891522   -209.749164 -23242.645110    -54.380675
PR21   9099.771453 -19425.043066 -13781.440038   -232.515767
PR22   2847.831487 -25289.827869   2295.328510   -128.565099
PR24 -11062.606838   1105.280414  22969.638792     55.034038
EOF
